OBJECT_NAME,OBJECT_ID,EPOCH,MEAN_MOTION,ECCENTRICITY,INCLINATION,RA_OF_ASC_NODE,ARG_OF_PERICENTER,MEAN_ANOMALY,EPHEMERIS_TYPE,CLASSIFICATION_TYPE,NORAD_CAT_ID,ELEMENT_SET_NO,REV_AT_EPOCH,BSTAR,MEAN_MOTION_DOT,MEAN_MOTION_DDOT
M2 PATHFINDER,2020-037E,2026-07-12T23:33:04.872096,15.04787964,.001309,97.8146,25.5047,69.3329,290.9298,0,U,45727,999,32937,.68591E-4,.905E-5,0
NETSAT-4,2020-068U,2026-07-12T23:29:09.646368,15.44709153,.0004497,97.8603,204.3078,201.3286,158.7775,0,U,46504,999,31975,.28211E-3,.13082E-3,0
NETSAT-3,2020-068V,2026-07-12T13:12:46.134144,15.43547770,.0003506,97.8651,202.0304,222.8875,137.2098,0,U,46505,999,31959,.26275E-3,.11703E-3,0
NETSAT-1,2020-068W,2026-07-12T22:49:34.730688,15.35213925,.000241,97.8748,196.4849,276.5907,83.5061,0,U,46506,999,31925,.24743E-3,.837E-4,0
NETSAT-2,2020-068X,2026-07-12T11:07:23.727648,15.47081469,.00017834,97.8611,203.7420,220.9475,139.1640,0,U,46507,999,31964,.30146263E-3,.15171E-3,0
GREENCUBE (IO-117),2022-080E,2026-07-12T17:00:29.176992,6.42583319,.000903,70.1415,289.3709,284.1311,75.8345,0,U,53109,999,9370,0,-.3E-7,0
SITRO-AIS 5 (KATYS),2023-091L,2026-07-13T04:03:56.592000,15.30036957,.0010849,97.5053,258.3239,19.5576,340.6078,0,U,57176,999,16831,.24945E-3,.7186E-4,0
SITRO-AIS 6 (CHIRKIN),2023-091AC,2026-07-13T03:26:44.035872,15.26415346,.0011412,97.5061,257.2773,23.6408,336.5353,0,U,57192,999,16824,.24399E-3,.6289E-4,0
SITRO-AIS 8 (ANOKHIN),2023-091AD,2026-07-13T03:21:45.746784,15.32823411,.000974,97.5050,259.9908,15.6426,344.5114,0,U,57193,999,16842,.29927E-3,.9422E-4,0
SITRO-AIS 7 (FARTUSHNIY),2023-091AE,2026-07-13T03:39:03.293280,15.26090209,.0011363,97.5057,257.0972,24.8337,335.3445,0,U,57194,999,16823,.23225E-3,.5923E-4,0
SITRO-AIS 10 (BURDAEV),2023-091AK,2026-07-13T03:00:19.247328,15.39579223,.0005042,97.5076,265.3032,350.0151,10.0994,0,U,57199,999,16875,.36863E-3,.14435E-3,0
SITRO-AIS 9 (SHCHUKIN),2023-091AM,2026-07-13T03:50:30.015168,15.39063918,.0005308,97.5075,265.0482,350.2686,9.8455,0,U,57201,999,16874,.32614E-3,.12545E-3,0
SITRO-AIS 12 (SMIRENNIY),2023-091AQ,2026-07-13T03:29:52.374912,15.39361326,.0004844,97.5088,265.5170,343.2629,16.8456,0,U,57204,999,16876,.36663E-3,.14254E-3,0
SITRO-AIS 11 (SHEFFER),2023-091AU,2026-07-13T03:38:40.067232,15.39803069,.0004749,97.5086,265.7864,342.6829,17.4254,0,U,57208,999,16878,.35847E-3,.14138E-3,0
SITRO-AIS 25,2024-039R,2026-07-13T04:04:41.920032,14.93635695,.014263,95.3894,252.9474,236.6830,122.0671,0,U,59066,999,12860,.14576E-3,.1844E-4,0
SITRO-AIS 26,2024-039S,2026-07-13T04:11:49.727040,14.93427918,.0142971,95.3894,252.8431,237.2867,121.4507,0,U,59067,999,12859,.14949E-3,.1883E-4,0
SITRO-AIS 27,2024-039T,2026-07-13T04:54:53.607168,14.93852803,.0142027,95.3899,253.1475,235.7135,123.0577,0,U,59068,999,12862,.11795E-3,.1492E-4,0
SITRO-AIS 28,2024-039U,2026-07-13T04:21:34.742304,14.93886377,.0141942,95.3897,253.1803,235.6283,123.1451,0,U,59071,999,12862,.15864E-3,.2021E-4,0
GRBBETA,2024-128C,2026-07-12T21:40:37.407936,15.06800020,.0037346,61.9895,126.0301,140.1502,220.2344,0,U,60237,999,11014,.15113E-3,.2075E-4,0
OOV-CUBE (TUBSAT-30),2024-128F,2026-07-12T22:31:12.025632,15.02868542,.0041426,61.9937,135.7729,139.5225,220.8961,0,U,60240,999,10998,.96041E-4,.1101E-4,0
ROBUSTA-3A (MEDITERRANEE),2024-128J,2026-07-12T22:19:04.999008,15.11968046,.0038273,61.9864,117.1894,133.5267,226.9019,0,U,60243,999,11031,.30229E-3,.5076E-4,0
LASARSAT,2024-247Q,2026-07-12T23:54:51.799968,15.47948222,.0006977,44.9747,117.0092,149.4103,210.7196,0,U,62391,999,8731,.53151E-3,.28123E-3,0
CROCUBE,2024-247T,2026-07-11T23:51:35.008416,15.50022679,.00071113,44.9710,119.5598,151.4755,208.6527,0,U,62394,999,8719,.48357142E-3,.27505E-3,0
FORESAIL-1 PRIME,2025-276DS,2026-07-13T03:38:54.598848,15.18928427,.0003042,97.4194,266.9496,49.5627,310.5873,0,U,66778,999,3434,.14455E-3,.2951E-4,0
KNACKSAT-2,1998-067XZ,2026-07-12T10:39:42.222816,15.62203060,.00081528,51.6258,167.2182,318.8485,41.1893,0,U,67683,999,2422,.37969135E-3,.33729E-3,0
