M2 PATHFINDER           
1 45727U 20037E   26193.98130639  .00000905  00000+0  68591-4 0  9993
2 45727  97.8146  25.5047 0013090  69.3329 290.9298 15.04787964329374
NETSAT-4                
1 46504U 20068U   26193.97858387  .00013082  00000+0  28211-3 0  9991
2 46504  97.8603 204.3078 0004497 201.3286 158.7775 15.44709153319758
NETSAT-3                
1 46505U 20068V   26193.55053396  .00011703  00000+0  26275-3 0  9999
2 46505  97.8651 202.0304 0003506 222.8875 137.2098 15.43547770319597
NETSAT-1                
1 46506U 20068W   26193.95109642  .00008370  00000+0  24743-3 0  9994
2 46506  97.8748 196.4849 0002410 276.5907  83.5061 15.35213925319259
NETSAT-2                
1 46507U 20068X   26193.46346907  .00015171  00000+0  30146-3 0  9999
2 46507  97.8611 203.7420 0001783 220.9475 139.1640 15.47081469319644
GREENCUBE (IO-117)      
1 53109U 22080E   26193.70867103 -.00000003  00000+0  00000+0 0  9995
2 53109  70.1415 289.3709 0009030 284.1311  75.8345  6.42583319 93700
SITRO-AIS 5 (KATYS)     
1 57176U 23091L   26194.16940500  .00007186  00000+0  24945-3 0  9996
2 57176  97.5053 258.3239 0010849  19.5576 340.6078 15.30036957168310
SITRO-AIS 6 (CHIRKIN)   
1 57192U 23091AC  26194.14356523  .00006289  00000+0  24399-3 0  9994
2 57192  97.5061 257.2773 0011412  23.6408 336.5353 15.26415346168245
SITRO-AIS 8 (ANOKHIN)   
1 57193U 23091AD  26194.14011281  .00009422  00000+0  29927-3 0  9998
2 57193  97.5050 259.9908 0009740  15.6426 344.5114 15.32823411168422
SITRO-AIS 7 (FARTUSHNIY)
1 57194U 23091AE  26194.15212145  .00005923  00000+0  23225-3 0  9999
2 57194  97.5057 257.0972 0011363  24.8337 335.3445 15.26090209168235
SITRO-AIS 10 (BURDAEV)  
1 57199U 23091AK  26194.12522277  .00014435  00000+0  36863-3 0  9991
2 57199  97.5076 265.3032 0005042 350.0151  10.0994 15.39579223168750
SITRO-AIS 9 (SHCHUKIN)  
1 57201U 23091AM  26194.16006962  .00012545  00000+0  32614-3 0  9997
2 57201  97.5075 265.0482 0005308 350.2686   9.8455 15.39063918168745
SITRO-AIS 12 (SMIRENNIY)
1 57204U 23091AQ  26194.14574508  .00014254  00000+0  36663-3 0  9991
2 57204  97.5088 265.5170 0004844 343.2629  16.8456 15.39361326168769
SITRO-AIS 11 (SHEFFER)  
1 57208U 23091AU  26194.15185263  .00014138  00000+0  35847-3 0  9996
2 57208  97.5086 265.7864 0004749 342.6829  17.4254 15.39803069168782
SITRO-AIS 25            
1 59066U 24039R   26194.16992963  .00001844  00000+0  14576-3 0  9993
2 59066  95.3894 252.9474 0142630 236.6830 122.0671 14.93635695128600
SITRO-AIS 26            
1 59067U 24039S   26194.17488110  .00001883  00000+0  14949-3 0  9996
2 59067  95.3894 252.8431 0142971 237.2867 121.4507 14.93427918128594
SITRO-AIS 27            
1 59068U 24039T   26194.20478712  .00001492  00000+0  11795-3 0  9990
2 59068  95.3899 253.1475 0142027 235.7135 123.0577 14.93852803128629
SITRO-AIS 28            
1 59071U 24039U   26194.18165211  .00002021  00000+0  15864-3 0  9998
2 59071  95.3897 253.1803 0141942 235.6283 123.1451 14.93886377128629
GRBBETA                 
1 60237U 24128C   26193.90321074  .00002075  00000+0  15113-3 0  9999
2 60237  61.9895 126.0301 0037346 140.1502 220.2344 15.06800020110143
OOV-CUBE (TUBSAT-30)    
1 60240U 24128F   26193.93833363  .00001101  00000+0  96041-4 0  9994
2 60240  61.9937 135.7729 0041426 139.5225 220.8961 15.02868542109983
ROBUSTA-3A (MEDITERRAN*)
1 60243U 24128J   26193.92991897  .00005076  00000+0  30229-3 0  9993
2 60243  61.9864 117.1894 0038273 133.5267 226.9019 15.11968046110318
LASARSAT                
1 62391U 24247Q   26193.99643287  .00028123  00000+0  53151-3 0  9992
2 62391  44.9747 117.0092 0006977 149.4103 210.7196 15.47948222 87318
CROCUBE                 
1 62394U 24247T   26192.99415519  .00027505  00000+0  48357-3 0  9994
2 62394  44.9710 119.5598 0007111 151.4755 208.6527 15.50022679 87199
FORESAIL-1 PRIME        
1 66778U 25276DS  26194.15202082  .00002951  00000+0  14455-3 0  9996
2 66778  97.4194 266.9496 0003042  49.5627 310.5873 15.18928427 34342
KNACKSAT-2              
1 67683U 98067XZ  26193.44423869  .00033729  00000+0  37969-3 0  9991
2 67683  51.6258 167.2182 0008152 318.8485  41.1893 15.62203060 24220
